CCSDS_OMM_VERS = 2.0
CREATION_DATE  = 
ORIGINATOR     = 

OBJECT_NAME    = TIANQI A
OBJECT_ID      = 2026-010A
CENTER_NAME    = EARTH
REF_FRAME      = TEME
TIME_SYSTEM    = UTC
MEAN_ELEMENT_THEORY = SGP/SGP4

EPOCH          = 2026-01-20T23:25:10.130016
MEAN_MOTION    = 14.14267719
ECCENTRICITY   = .00107593
INCLINATION    = 44.9833
RA_OF_ASC_NODE = 20.0867
ARG_OF_PERICENTER = 331.2995
MEAN_ANOMALY   = 28.7251

EPHEMERIS_TYPE = 0
CLASSIFICATION_TYPE = U
NORAD_CAT_ID   = 67476
ELEMENT_SET_NO = 999
REV_AT_EPOCH   = 73
BSTAR          = .39610102E-3
MEAN_MOTION_DOT = .629E-5
MEAN_MOTION_DDOT = 0

CCSDS_OMM_VERS = 2.0
CREATION_DATE  = 
ORIGINATOR     = 

OBJECT_NAME    = TIANQI B
OBJECT_ID      = 2026-010B
CENTER_NAME    = EARTH
REF_FRAME      = TEME
TIME_SYSTEM    = UTC
MEAN_ELEMENT_THEORY = SGP/SGP4

EPOCH          = 2026-01-20T23:24:22.953888
MEAN_MOTION    = 14.14418118
ECCENTRICITY   = .00112607
INCLINATION    = 44.9797
RA_OF_ASC_NODE = 20.0826
ARG_OF_PERICENTER = 333.8586
MEAN_ANOMALY   = 26.1683

EPHEMERIS_TYPE = 0
CLASSIFICATION_TYPE = U
NORAD_CAT_ID   = 67477
ELEMENT_SET_NO = 999
REV_AT_EPOCH   = 73
BSTAR          = .39154367E-3
MEAN_MOTION_DOT = .622E-5
MEAN_MOTION_DDOT = 0

CCSDS_OMM_VERS = 2.0
CREATION_DATE  = 
ORIGINATOR     = 

OBJECT_NAME    = TIANQI C
OBJECT_ID      = 2026-010C
CENTER_NAME    = EARTH
REF_FRAME      = TEME
TIME_SYSTEM    = UTC
MEAN_ELEMENT_THEORY = SGP/SGP4

EPOCH          = 2026-01-20T23:23:51.389376
MEAN_MOTION    = 14.14520268
ECCENTRICITY   = .00111947
INCLINATION    = 44.9843
RA_OF_ASC_NODE = 20.0814
ARG_OF_PERICENTER = 337.8884
MEAN_ANOMALY   = 22.1471

EPHEMERIS_TYPE = 0
CLASSIFICATION_TYPE = U
NORAD_CAT_ID   = 67478
ELEMENT_SET_NO = 999
REV_AT_EPOCH   = 73
BSTAR          = .40978671E-3
MEAN_MOTION_DOT = .659E-5
MEAN_MOTION_DDOT = 0

CCSDS_OMM_VERS = 2.0
CREATION_DATE  = 
ORIGINATOR     = 

OBJECT_NAME    = TIANQI D
OBJECT_ID      = 2026-010D
CENTER_NAME    = EARTH
REF_FRAME      = TEME
TIME_SYSTEM    = UTC
MEAN_ELEMENT_THEORY = SGP/SGP4

EPOCH          = 2026-01-20T23:23:47.111712
MEAN_MOTION    = 14.14532533
ECCENTRICITY   = .00119385
INCLINATION    = 44.9849
RA_OF_ASC_NODE = 20.0812
ARG_OF_PERICENTER = 334.1761
MEAN_ANOMALY   = 25.8481

EPHEMERIS_TYPE = 0
CLASSIFICATION_TYPE = U
NORAD_CAT_ID   = 67479
ELEMENT_SET_NO = 999
REV_AT_EPOCH   = 73
BSTAR          = .39724991E-3
MEAN_MOTION_DOT = .635E-5
MEAN_MOTION_DDOT = 0

CCSDS_OMM_VERS = 2.0
CREATION_DATE  = 
ORIGINATOR     = 

OBJECT_NAME    = TRANSPORTER-15DT
OBJECT_ID      = 2025-276DT
CENTER_NAME    = EARTH
REF_FRAME      = TEME
TIME_SYSTEM    = UTC
MEAN_ELEMENT_THEORY = SGP/SGP4

EPOCH          = 2026-01-20T16:32:40.659936
MEAN_MOTION    = 14.97612270
ECCENTRICITY   = .00100894
INCLINATION    = 97.5436
RA_OF_ASC_NODE = 96.4665
ARG_OF_PERICENTER = 266.4894
MEAN_ANOMALY   = 93.5175

EPHEMERIS_TYPE = 0
CLASSIFICATION_TYPE = U
NORAD_CAT_ID   = 67483
ELEMENT_SET_NO = 999
REV_AT_EPOCH   = 53
BSTAR          = .42980489E-3
MEAN_MOTION_DOT = .4974E-4
MEAN_MOTION_DDOT = 0

CCSDS_OMM_VERS = 2.0
CREATION_DATE  = 
ORIGINATOR     = 

OBJECT_NAME    = HULIANWANG DIGUI 19A
OBJECT_ID      = 2026-013A
CENTER_NAME    = EARTH
REF_FRAME      = TEME
TIME_SYSTEM    = UTC
MEAN_ELEMENT_THEORY = SGP/SGP4

EPOCH          = 2026-01-20T12:18:59.997024
MEAN_MOTION    = 13.97939256
ECCENTRICITY   = .00114449
INCLINATION    = 50.0132
RA_OF_ASC_NODE = 180.3657
ARG_OF_PERICENTER = 238.6074
MEAN_ANOMALY   = 121.3708

EPHEMERIS_TYPE = 0
CLASSIFICATION_TYPE = U
NORAD_CAT_ID   = 67522
ELEMENT_SET_NO = 999
REV_AT_EPOCH   = 17
BSTAR          = 0
MEAN_MOTION_DOT = -.149E-5
MEAN_MOTION_DDOT = 0

CCSDS_OMM_VERS = 2.0
CREATION_DATE  = 
ORIGINATOR     = 

OBJECT_NAME    = HULIANWANG DIGUI 19B
OBJECT_ID      = 2026-013B
CENTER_NAME    = EARTH
REF_FRAME      = TEME
TIME_SYSTEM    = UTC
MEAN_ELEMENT_THEORY = SGP/SGP4

EPOCH          = 2026-01-20T22:36:24.862752
MEAN_MOTION    = 13.98087798
ECCENTRICITY   = .00109747
INCLINATION    = 50.0040
RA_OF_ASC_NODE = 178.6238
ARG_OF_PERICENTER = 237.5995
MEAN_ANOMALY   = 122.3845

EPHEMERIS_TYPE = 0
CLASSIFICATION_TYPE = U
NORAD_CAT_ID   = 67523
ELEMENT_SET_NO = 999
REV_AT_EPOCH   = 23
BSTAR          = .8304326E-5
MEAN_MOTION_DOT = -.137E-5
MEAN_MOTION_DDOT = 0

CCSDS_OMM_VERS = 2.0
CREATION_DATE  = 
ORIGINATOR     = 

OBJECT_NAME    = HULIANWANG DIGUI 19C
OBJECT_ID      = 2026-013C
CENTER_NAME    = EARTH
REF_FRAME      = TEME
TIME_SYSTEM    = UTC
MEAN_ELEMENT_THEORY = SGP/SGP4

EPOCH          = 2026-01-20T20:53:28.633056
MEAN_MOTION    = 13.98090136
ECCENTRICITY   = .00107647
INCLINATION    = 50.0067
RA_OF_ASC_NODE = 178.9200
ARG_OF_PERICENTER = 238.4956
MEAN_ANOMALY   = 121.4895

EPHEMERIS_TYPE = 0
CLASSIFICATION_TYPE = U
NORAD_CAT_ID   = 67524
ELEMENT_SET_NO = 999
REV_AT_EPOCH   = 22
BSTAR          = .373124E-4
MEAN_MOTION_DOT = -.96E-6
MEAN_MOTION_DDOT = 0

CCSDS_OMM_VERS = 2.0
CREATION_DATE  = 
ORIGINATOR     = 

OBJECT_NAME    = HULIANWANG DIGUI 19D
OBJECT_ID      = 2026-013D
CENTER_NAME    = EARTH
REF_FRAME      = TEME
TIME_SYSTEM    = UTC
MEAN_ELEMENT_THEORY = SGP/SGP4

EPOCH          = 2026-01-20T22:36:20.687040
MEAN_MOTION    = 13.98124151
ECCENTRICITY   = .00105311
INCLINATION    = 50.0065
RA_OF_ASC_NODE = 178.6338
ARG_OF_PERICENTER = 246.3886
MEAN_ANOMALY   = 113.5910

EPHEMERIS_TYPE = 0
CLASSIFICATION_TYPE = U
NORAD_CAT_ID   = 67525
ELEMENT_SET_NO = 999
REV_AT_EPOCH   = 23
BSTAR          = .37103382E-4
MEAN_MOTION_DOT = -.96E-6
MEAN_MOTION_DDOT = 0

CCSDS_OMM_VERS = 2.0
CREATION_DATE  = 
ORIGINATOR     = 

OBJECT_NAME    = HULIANWANG DIGUI 19E
OBJECT_ID      = 2026-013E
CENTER_NAME    = EARTH
REF_FRAME      = TEME
TIME_SYSTEM    = UTC
MEAN_ELEMENT_THEORY = SGP/SGP4

EPOCH          = 2026-01-20T22:36:08.436384
MEAN_MOTION    = 13.98253630
ECCENTRICITY   = .00099922
INCLINATION    = 50.0084
RA_OF_ASC_NODE = 178.6331
ARG_OF_PERICENTER = 244.5404
MEAN_ANOMALY   = 115.4464

EPHEMERIS_TYPE = 0
CLASSIFICATION_TYPE = U
NORAD_CAT_ID   = 67526
ELEMENT_SET_NO = 999
REV_AT_EPOCH   = 25
BSTAR          = .37313494E-4
MEAN_MOTION_DOT = -.96E-6
MEAN_MOTION_DDOT = 0

CCSDS_OMM_VERS = 2.0
CREATION_DATE  = 
ORIGINATOR     = 

OBJECT_NAME    = HULIANWANG DIGUI 19F
OBJECT_ID      = 2026-013F
CENTER_NAME    = EARTH
REF_FRAME      = TEME
TIME_SYSTEM    = UTC
MEAN_ELEMENT_THEORY = SGP/SGP4

EPOCH          = 2026-01-20T22:36:02.087712
MEAN_MOTION    = 13.98322455
ECCENTRICITY   = .00098435
INCLINATION    = 50.0037
RA_OF_ASC_NODE = 178.6257
ARG_OF_PERICENTER = 238.0750
MEAN_ANOMALY   = 121.9195

EPHEMERIS_TYPE = 0
CLASSIFICATION_TYPE = U
NORAD_CAT_ID   = 67527
ELEMENT_SET_NO = 999
REV_AT_EPOCH   = 23
BSTAR          = -.62324354E-3
MEAN_MOTION_DOT = -.1044E-4
MEAN_MOTION_DDOT = 0

CCSDS_OMM_VERS = 2.0
CREATION_DATE  = 
ORIGINATOR     = 

OBJECT_NAME    = HULIANWANG DIGUI 19G
OBJECT_ID      = 2026-013G
CENTER_NAME    = EARTH
REF_FRAME      = TEME
TIME_SYSTEM    = UTC
MEAN_ELEMENT_THEORY = SGP/SGP4

EPOCH          = 2026-01-20T22:36:00.954144
MEAN_MOTION    = 13.98324894
ECCENTRICITY   = .00097239
INCLINATION    = 50.0017
RA_OF_ASC_NODE = 178.6207
ARG_OF_PERICENTER = 245.8273
MEAN_ANOMALY   = 114.1613

EPHEMERIS_TYPE = 0
CLASSIFICATION_TYPE = U
NORAD_CAT_ID   = 67528
ELEMENT_SET_NO = 999
REV_AT_EPOCH   = 23
BSTAR          = .37412418E-4
MEAN_MOTION_DOT = -.95E-6
MEAN_MOTION_DDOT = 0

