TIANQI A                
1 67476U 26010A   26020.97581169  .00000629  00000+0  39610-3 0  9993
2 67476  44.9833  20.0867 0010759 331.2995  28.7251 14.14267719   737
TIANQI B                
1 67477U 26010B   26020.97526567  .00000622  00000+0  39154-3 0  9991
2 67477  44.9797  20.0826 0011260 333.8586  26.1683 14.14418118   736
TIANQI C                
1 67478U 26010C   26020.97490034  .00000659  00000+0  40979-3 0  9998
2 67478  44.9843  20.0814 0011194 337.8884  22.1471 14.14520268   738
TIANQI D                
1 67479U 26010D   26020.97485083  .00000635  00000+0  39725-3 0  9998
2 67479  44.9849  20.0812 0011938 334.1761  25.8481 14.14532533   732
TRANSPORTER-15DT        
1 67483U 25276DT  26020.68935949  .00004974  00000+0  42980-3 0  9992
2 67483  97.5436  96.4665 0010089 266.4894  93.5175 14.97612270   534
HULIANWANG DIGUI 19A    
1 67522U 26013A   26020.51319441 -.00000149  00000+0  00000+0 0  9995
2 67522  50.0132 180.3657 0011444 238.6074 121.3708 13.97939256   173
HULIANWANG DIGUI 19B    
1 67523U 26013B   26020.94195443 -.00000137  00000+0  83043-5 0  9998
2 67523  50.0040 178.6238 0010974 237.5995 122.3845 13.98087798   230
HULIANWANG DIGUI 19C    
1 67524U 26013C   26020.87047029 -.00000096  00000+0  37312-4 0  9998
2 67524  50.0067 178.9200 0010764 238.4956 121.4895 13.98090136   220
HULIANWANG DIGUI 19D    
1 67525U 26013D   26020.94190610 -.00000096  00000+0  37103-4 0  9990
2 67525  50.0065 178.6338 0010531 246.3886 113.5910 13.98124151   236
HULIANWANG DIGUI 19E    
1 67526U 26013E   26020.94176431 -.00000096  00000+0  37313-4 0  9999
2 67526  50.0084 178.6331 0009992 244.5404 115.4464 13.98253630   258
HULIANWANG DIGUI 19F    
1 67527U 26013F   26020.94169083 -.00001044  00000+0 -62324-3 0  9999
2 67527  50.0037 178.6257 0009843 238.0750 121.9195 13.98322455   234
HULIANWANG DIGUI 19G    
1 67528U 26013G   26020.94167771 -.00000095  00000+0  37412-4 0  9997
2 67528  50.0017 178.6207 0009723 245.8273 114.1613 13.98324894   239
